start=new Date('2023-06-03T00:00:00.000Z').valueOf();
sats=[{"MEAN_MOTION":"15.08836840","EPHEMERIS_TYPE":"0","OBJECT_NAME":"STARLINK-4650","MEAN_MOTION_DOT":"0.00000240","REF_FRAME":"TEME","TIME_SYSTEM":"UTC","PERIAPSIS":"538.972","BSTAR":"0.00003319000000","CLASSIFICATION_TYPE":"U","TLE_LINE1":"1 53611U 22104Z   23153.15016228  .00000240  00000-0  33190-4 0  9990","ECCENTRICITY":"0.00011320","GP_ID":"233046955","FILE":"3923488","INCLINATION":"53.2164","LAUNCH_DATE":"2022-08-28","EPOCH":"2023-06-02T03:36:14.020992","PERIOD":"95.438","NORAD_CAT_ID":"53611","RA_OF_ASC_NODE":"95.3275","COUNTRY_CODE":"US","SITE":"AFETR","OBJECT_ID":"2022-104Z","MEAN_ELEMENT_THEORY":"SGP4","MEAN_ANOMALY":"266.5462","MEAN_MOTION_DDOT":"0.0000000000000","OBJECT_TYPE":"PAYLOAD","ELEMENT_SET_NO":"999","APOAPSIS":"540.538","TLE_LINE2":"2 53611  53.2164  95.3275 0001132  93.5660 266.5462 15.08836840 42354","ARG_OF_PERICENTER":"93.5660","RCS_SIZE":"LARGE","DECAY_DATE":null,"CENTER_NAME":"EARTH","SEMIMAJOR_AXIS":"6917.890","REV_AT_EPOCH":"4235"},{"MEAN_ELEMENT_THEORY":"SGP4","SITE":"AFETR","OBJECT_ID":"2022-104AA","COUNTRY_CODE":"US","NORAD_CAT_ID":"53612","RA_OF_ASC_NODE":"92.2689","OBJECT_TYPE":"PAYLOAD","ELEMENT_SET_NO":"999","MEAN_MOTION_DDOT":"0.0000000000000","MEAN_ANOMALY":"256.2781","ARG_OF_PERICENTER":"103.8341","APOAPSIS":"540.570","TLE_LINE2":"2 53612  53.2178  92.2689 0001166 103.8341 256.2781 15.08834052 43021","REV_AT_EPOCH":"4302","CENTER_NAME":"EARTH","DECAY_DATE":null,"SEMIMAJOR_AXIS":"6917.899","RCS_SIZE":"LARGE","TIME_SYSTEM":"UTC","EPHEMERIS_TYPE":"0","REF_FRAME":"TEME","MEAN_MOTION_DOT":"-0.00000028","OBJECT_NAME":"STARLINK-4658","MEAN_MOTION":"15.08834052","CLASSIFICATION_TYPE":"U","BSTAR":"0.00001633900000","PERIAPSIS":"538.957","GP_ID":"233072768","FILE":"3923570","TLE_LINE1":"1 53612U 22104AA  23153.79782405 -.00000028  00000-0  16339-4 0  9999","ECCENTRICITY":"0.00011660","EPOCH":"2023-06-02T19:08:51.997920","PERIOD":"95.438","LAUNCH_DATE":"2022-08-28","INCLINATION":"53.2178"},{"INCLINATION":"53.2164","LAUNCH_DATE":"2022-08-28","PERIOD":"95.438","EPOCH":"2023-06-02T03:25:37.474176","ECCENTRICITY":"0.00012690","TLE_LINE1":"1 53613U 22104AB  23153.14279484 -.00000943  00000-0 -41190-4 0  9997","FILE":"3923342","GP_ID":"233039679","PERIAPSIS":"538.876","BSTAR":"-0.00004119000000","CLASSIFICATION_TYPE":"U","MEAN_MOTION":"15.08837160","REF_FRAME":"TEME","OBJECT_NAME":"STARLINK-4655","MEAN_MOTION_DOT":"-0.00000943","EPHEMERIS_TYPE":"0","TIME_SYSTEM":"UTC","RCS_SIZE":"LARGE","SEMIMAJOR_AXIS":"6917.889","DECAY_DATE":null,"CENTER_NAME":"EARTH","REV_AT_EPOCH":"4292","TLE_LINE2":"2 53613  53.2164  95.2842 0001269  96.3914 263.7222 15.08837160 42921","APOAPSIS":"540.632","ARG_OF_PERICENTER":"96.3914","MEAN_ANOMALY":"263.7222","MEAN_MOTION_DDOT":"0.0000000000000","ELEMENT_SET_NO":"999","OBJECT_TYPE":"PAYLOAD","RA_OF_ASC_NODE":"95.2842","NORAD_CAT_ID":"53613","COUNTRY_CODE":"US","OBJECT_ID":"2022-104AB","SITE":"AFETR","MEAN_ELEMENT_THEORY":"SGP4"},{"ELEMENT_SET_NO":"999","OBJECT_TYPE":"PAYLOAD","MEAN_ANOMALY":"261.5130","MEAN_MOTION_DDOT":"0.0000000000000","OBJECT_ID":"2022-104AE","SITE":"AFETR","MEAN_ELEMENT_THEORY":"SGP4","RA_OF_ASC_NODE":"84.8195","NORAD_CAT_ID":"53616","COUNTRY_CODE":"US","SEMIMAJOR_AXIS":"6917.866","DECAY_DATE":null,"CENTER_NAME":"EARTH","REV_AT_EPOCH":"4318","RCS_SIZE":"LARGE","ARG_OF_PERICENTER":"98.6023","TLE_LINE2":"2 53616  53.2180  84.8195 0001419  98.6023 261.5130 15.08844701 43182","APOAPSIS":"540.713","BSTAR":"-0.00003592200000","CLASSIFICATION_TYPE":"U","PERIAPSIS":"538.749","REF_FRAME":"TEME","MEAN_MOTION_DOT":"-0.00000860","OBJECT_NAME":"STARLINK-4605","EPHEMERIS_TYPE":"0","TIME_SYSTEM":"UTC","MEAN_MOTION":"15.08844701","PERIOD":"95.437","EPOCH":"2023-06-02T05:03:40.629888","INCLINATION":"53.2180","LAUNCH_DATE":"2022-08-28","ECCENTRICITY":"0.00014190","TLE_LINE1":"1 53616U 22104AE  23153.21088692 -.00000860  00000-0 -35922-4 0  9991","GP_ID":"233040931","FILE":"3923342"},{"TLE_LINE2":"2 53617  53.2169  94.6176 0001150  89.4578 270.6546 15.08843812 42940","APOAPSIS":"540.529","ARG_OF_PERICENTER":"89.4578","RCS_SIZE":"LARGE","REV_AT_EPOCH":"4294","SEMIMAJOR_AXIS":"6917.869","CENTER_NAME":"EARTH","DECAY_DATE":null,"COUNTRY_CODE":"US","RA_OF_ASC_NODE":"94.6176","NORAD_CAT_ID":"53617","MEAN_ELEMENT_THEORY":"SGP4","OBJECT_ID":"2022-104AF","SITE":"AFETR","MEAN_MOTION_DDOT":"0.0000000000000","MEAN_ANOMALY":"270.6546","ELEMENT_SET_NO":"999","OBJECT_TYPE":"PAYLOAD","GP_ID":"233041180","FILE":"3923342","ECCENTRICITY":"0.00011500","TLE_LINE1":"1 53617U 22104AF  23153.26421255 -.00000805  00000-0 -32503-4 0  9994","LAUNCH_DATE":"2022-08-28","INCLINATION":"53.2169","PERIOD":"95.437","EPOCH":"2023-06-02T06:20:27.964320","MEAN_MOTION":"15.08843812","TIME_SYSTEM":"UTC","REF_FRAME":"TEME","MEAN_MOTION_DOT":"-0.00000805","OBJECT_NAME":"STARLINK-4601","EPHEMERIS_TYPE":"0","PERIAPSIS":"538.938","CLASSIFICATION_TYPE":"U","BSTAR":"-0.00003250300000"},{"TLE_LINE1":"1 53618U 22104AG  23153.25315582 -.00002322  00000-0 -12779-3 0  9997","ECCENTRICITY":"0.00012210","GP_ID":"233039430","FILE":"3923342","INCLINATION":"53.2157","LAUNCH_DATE":"2022-08-28","EPOCH":"2023-06-02T06:04:32.662848","PERIOD":"95.437","MEAN_MOTION":"15.08851696","EPHEMERIS_TYPE":"0","REF_FRAME":"TEME","MEAN_MOTION_DOT":"-0.00002322","OBJECT_NAME":"STARLINK-4604","TIME_SYSTEM":"UTC","PERIAPSIS":"538.865","BSTAR":"-0.00012779000000","CLASSIFICATION_TYPE":"U","APOAPSIS":"540.554","TLE_LINE2":"2 53618  53.2157  94.5507 0001221  79.5199 280.5930 15.08851696 42365","ARG_OF_PERICENTER":"79.5199","RCS_SIZE":"LARGE","DECAY_DATE":null,"CENTER_NAME":"EARTH","SEMIMAJOR_AXIS":"6917.845","REV_AT_EPOCH":"4236","NORAD_CAT_ID":"53618","RA_OF_ASC_NODE":"94.5507","COUNTRY_CODE":"US","SITE":"AFETR","OBJECT_ID":"2022-104AG","MEAN_ELEMENT_THEORY":"SGP4","MEAN_ANOMALY":"280.5930","MEAN_MOTION_DDOT":"0.0000000000000","OBJECT_TYPE":"PAYLOAD","ELEMENT_SET_NO":"999"},{"MEAN_MOTION":"15.08835319","TIME_SYSTEM":"UTC","REF_FRAME":"TEME","MEAN_MOTION_DOT":"-0.00000214","OBJECT_NAME":"STARLINK-4609","EPHEMERIS_TYPE":"0","PERIAPSIS":"538.979","CLASSIFICATION_TYPE":"U","BSTAR":"0.00000465310000","GP_ID":"233073517","FILE":"3923570","ECCENTRICITY":"0.00011290","TLE_LINE1":"1 53619U 22104AH  23153.85669543 -.00000214  00000-0  46531-5 0  9995","LAUNCH_DATE":"2022-08-28","INCLINATION":"53.2167","PERIOD":"95.438","EPOCH":"2023-06-02T20:33:38.485152","COUNTRY_CODE":"US","RA_OF_ASC_NODE":"91.9228","NORAD_CAT_ID":"53619","MEAN_ELEMENT_THEORY":"SGP4","OBJECT_ID":"2022-104AH","SITE":"AFETR","MEAN_MOTION_DDOT":"0.0000000000000","MEAN_ANOMALY":"268.8386","ELEMENT_SET_NO":"999","OBJECT_TYPE":"PAYLOAD","TLE_LINE2":"2 53619  53.2167  91.9228 0001129  91.2735 268.8386 15.08835319 43035","APOAPSIS":"540.541","ARG_OF_PERICENTER":"91.2735","RCS_SIZE":"LARGE","REV_AT_EPOCH":"4303","SEMIMAJOR_AXIS":"6917.895","DECAY_DATE":null,"CENTER_NAME":"EARTH"},{"TLE_LINE2":"2 53620  53.2164  91.8287 0001199  88.1473 271.9656 15.08835035 43141","APOAPSIS":"540.590","ARG_OF_PERICENTER":"88.1473","RCS_SIZE":"LARGE","SEMIMAJOR_AXIS":"6917.896","DECAY_DATE":null,"CENTER_NAME":"EARTH","REV_AT_EPOCH":"4314","RA_OF_ASC_NODE":"91.8287","NORAD_CAT_ID":"53620","COUNTRY_CODE":"US","OBJECT_ID":"2022-104AJ","SITE":"AFETR","MEAN_ELEMENT_THEORY":"SGP4","MEAN_ANOMALY":"271.9656","MEAN_MOTION_DDOT":"0.0000000000000","ELEMENT_SET_NO":"999","OBJECT_TYPE":"PAYLOAD","ECCENTRICITY":"0.00011990","TLE_LINE1":"1 53620U 22104AJ  23153.84195449  .00000630  00000-0  57667-4 0  9997","GP_ID":"233072268","FILE":"3923570","INCLINATION":"53.2164","LAUNCH_DATE":"2022-08-28","PERIOD":"95.438","EPOCH":"2023-06-02T20:12:24.867936","MEAN_MOTION":"15.08835035","MEAN_MOTION_DOT":"0.00000630","OBJECT_NAME":"STARLINK-4615","REF_FRAME":"TEME","EPHEMERIS_TYPE":"0","TIME_SYSTEM":"UTC","PERIAPSIS":"538.931","BSTAR":"0.00005766700000","CLASSIFICATION_TYPE":"U"},{"ARG_OF_PERICENTER":"86.4189","APOAPSIS":"540.656","TLE_LINE2":"2 53621  53.2163  91.8952 0001314  86.4189 273.6954 15.08839542 43039","REV_AT_EPOCH":"4303","CENTER_NAME":"EARTH","DECAY_DATE":null,"SEMIMAJOR_AXIS":"6917.882","RCS_SIZE":"LARGE","MEAN_ELEMENT_THEORY":"SGP4","SITE":"AFETR","OBJECT_ID":"2022-104AK","COUNTRY_CODE":"US","NORAD_CAT_ID":"53621","RA_OF_ASC_NODE":"91.8952","OBJECT_TYPE":"PAYLOAD","ELEMENT_SET_NO":"999","MEAN_MOTION_DDOT":"0.0000000000000","MEAN_ANOMALY":"273.6954","GP_ID":"233072518","FILE":"3923570","TLE_LINE1":"1 53621U 22104AK  23153.85300905 -.00001639  00000-0 -84888-4 0  9991","ECCENTRICITY":"0.00013140","EPOCH":"2023-06-02T20:28:19.981920","PERIOD":"95.438","LAUNCH_DATE":"2022-08-28","INCLINATION":"53.2163","TIME_SYSTEM":"UTC","EPHEMERIS_TYPE":"0","REF_FRAME":"TEME","MEAN_MOTION_DOT":"-0.00001639","OBJECT_NAME":"STARLINK-4608","MEAN_MOTION":"15.08839542","CLASSIFICATION_TYPE":"U","BSTAR":"-0.00008488800000","PERIAPSIS":"538.838"},{"BSTAR":"0.00002141500000","CLASSIFICATION_TYPE":"U","PERIAPSIS":"538.831","OBJECT_NAME":"STARLINK-4568","REF_FRAME":"TEME","MEAN_MOTION_DOT":"0.00000053","EPHEMERIS_TYPE":"0","TIME_SYSTEM":"UTC","MEAN_MOTION":"15.08841172","PERIOD":"95.437","EPOCH":"2023-06-02T05:44:42.478656","INCLINATION":"53.2174","LAUNCH_DATE":"2022-08-28","ECCENTRICITY":"0.00013170","TLE_LINE1":"1 53622U 22104AL  23153.23938054  .00000053  00000-0  21415-4 0  9990","GP_ID":"233039930","FILE":"3923342","ELEMENT_SET_NO":"999","OBJECT_TYPE":"PAYLOAD","MEAN_ANOMALY":"259.8171","MEAN_MOTION_DDOT":"0.0000000000000","OBJECT_ID":"2022-104AL","SITE":"AFETR","MEAN_ELEMENT_THEORY":"SGP4","RA_OF_ASC_NODE":"94.4603","NORAD_CAT_ID":"53622","COUNTRY_CODE":"US","SEMIMAJOR_AXIS":"6917.877","CENTER_NAME":"EARTH","DECAY_DATE":null,"REV_AT_EPOCH":"4305","RCS_SIZE":"LARGE","ARG_OF_PERICENTER":"100.2969","TLE_LINE2":"2 53622  53.2174  94.4603 0001317 100.2969 259.8171 15.08841172 43059","APOAPSIS":"540.653"}];
